      2.10          N: GNSS NAV DATA                        RINEX VERSION / TYPE
fic2rin                                 08/30/2019 00:19:25 PGM / RUN BY / DATE
                                                            END OF HEADER
21 19  8 29 16  0  0.0-1.279506832361e-04 6.593836587854e-12 0.000000000000e+00
    8.700000000000e+01-8.906250000000e+00 5.597733168055e-09 5.796906866954e-01
   -6.984919309616e-07 2.450586750638e-02 6.686896085739e-07 5.153664915085e+03
    4.032000000000e+05-2.328306436539e-07 1.607549526376e+00-1.620501279831e-07
    9.493165600795e-01 3.682500000000e+02-1.417116093533e+00-9.361461371014e-09
   -6.893144269984e-11 1.000000000000e+00 2.068000000000e+03 0.000000000000e+00
    2.400000000000e+00 0.000000000000e+00-1.024454832077e-08 8.700000000000e+01
    3.960000000000e+05 4.000000000000e+00
19 19  8 29 16  0  0.0-2.744086086750e-04 5.115907697473e-12 0.000000000000e+00
    6.100000000000e+01 1.478750000000e+02 4.227676099679e-09 1.017764974111e+00
    7.620081305504e-06 9.475669125095e-03 7.243826985359e-06 5.153646312714e+03
    4.032000000000e+05-1.359730958939e-07 7.214900780092e-01-8.568167686462e-08
    9.822166221563e-01 2.527500000000e+02 1.490713098527e+00-8.202484523547e-09
    5.139499795082e-10 1.000000000000e+00 2.068000000000e+03 0.000000000000e+00
    2.400000000000e+00 0.000000000000e+00-1.536682248116e-08 6.100000000000e+01
    3.960000000000e+05 4.000000000000e+00
31 19  8 29 16  0  0.0 1.401407644153e-05-2.614797267597e-12 0.000000000000e+00
    7.000000000000e+01-1.781250000000e+01 5.001636909682e-09 1.495533830530e+00
   -6.929039955139e-07 9.296572534367e-03 4.278495907784e-06 5.153670934677e+03
    4.032000000000e+05-1.117587089539e-08-1.444929688927e+00 9.872019290924e-08
    9.588827832825e-01 2.962500000000e+02 1.984143794982e-02-8.394278226811e-09
   -2.996553389905e-10 1.000000000000e+00 2.068000000000e+03 0.000000000000e+00
    2.400000000000e+00 0.000000000000e+00-1.350417733192e-08 7.000000000000e+01
    3.960000000000e+05 4.000000000000e+00
32 19  8 29 16  0  0.0 3.746710717678e-05 1.409716787748e-11 0.000000000000e+00
    3.900000000000e+01 3.337500000000e+01 4.557332688342e-09-9.645972777713e-01
    1.637265086174e-06 3.212959156372e-03 1.050531864166e-05 5.153624166489e+03
    4.032000000000e+05 9.126961231232e-08-2.528080185967e+00 9.313225746155e-09
    9.569895814973e-01 1.789375000000e+02-2.492173280106e+00-8.031048811133e-09
    5.225217651289e-10 1.000000000000e+00 2.068000000000e+03 0.000000000000e+00
    2.400000000000e+00 0.000000000000e+00 4.656612873077e-10 3.900000000000e+01
    3.960000000000e+05 4.000000000000e+00
29 19  8 29 16  0  0.0 1.120581291616e-04-1.011812855722e-11 0.000000000000e+00
    5.400000000000e+01 1.365937500000e+02 4.072669643038e-09-1.403254761868e+00
    7.189810276031e-06 1.206901040860e-03 8.240342140198e-06 5.153704002380e+03
    4.032000000000e+05-4.284083843231e-08 6.867180922907e-01-1.862645149231e-08
    9.858319111247e-01 2.390625000000e+02 1.968245219691e+00-7.924615806343e-09
    5.218074496605e-10 1.000000000000e+00 2.068000000000e+03 0.000000000000e+00
    2.400000000000e+00 0.000000000000e+00-9.778887033463e-09 5.400000000000e+01
    3.960000000000e+05 4.000000000000e+00
17 19  8 29 16  0  0.0 1.156856305897e-04 6.934897101019e-12 0.000000000000e+00
    6.300000000000e+01 1.563437500000e+02 4.035882396416e-09-1.775378913121e+00
    8.359551429749e-06 1.304285193328e-02 7.137656211853e-06 5.153566061020e+03
    4.032000000000e+05 2.197921276093e-07 6.754333060740e-01 2.086162567139e-07
    9.843272998802e-01 2.528750000000e+02-1.704685562059e+00-7.891042979328e-09
    5.560945921433e-10 1.000000000000e+00 2.068000000000e+03 0.000000000000e+00
    2.400000000000e+00 0.000000000000e+00-1.117587089539e-08 6.300000000000e+01
    3.960000000000e+05 4.000000000000e+00
23 19  8 29 15 59 44.0-1.696920953691e-04 2.046363078989e-12 0.000000000000e+00
    1.600000000000e+01 4.987500000000e+01 4.794485423848e-09-3.050821342909e+00
    2.397224307060e-06 1.322984695435e-02 1.050904393196e-05 5.153770881653e+03
    4.031840000000e+05 3.539025783539e-08-2.541241047587e+00-1.098960638046e-07
    9.435862850934e-01 1.640312500000e+02-2.231335279156e+00-7.928901699153e-09
    6.653848588073e-10 1.000000000000e+00 2.068000000000e+03 0.000000000000e+00
    2.400000000000e+00 0.000000000000e+00-2.002343535423e-08 1.600000000000e+01
    3.994500000000e+05 4.000000000000e+00
 2 19  8 29 15 59 44.0-2.935631200671e-04-8.299139153678e-12 0.000000000000e+00
    1.900000000000e+01-1.718750000000e+01 5.157000524057e-09 2.669690979345e+00
   -9.611248970032e-07 1.900849142112e-02-9.723007678986e-07 5.153773447037e+03
    4.031840000000e+05 1.471489667892e-07 1.603680245571e+00-2.011656761169e-07
    9.555119537768e-01 3.912187500000e+02-1.719223055924e+00-8.528212377134e-09
   -1.428630936784e-10 1.000000000000e+00 2.068000000000e+03 0.000000000000e+00
    2.400000000000e+00 6.300000000000e+01-2.048909664154e-08 1.900000000000e+01
    4.011000000000e+05 4.000000000000e+00
 4 19  8 29 16  0  0.0 1.566526480019e-04 5.115907697473e-11 0.000000000000e+00
    1.600000000000e+01 1.364375000000e+02 4.421969907082e-09-1.556588167974e+00
    6.979331374168e-06 1.465780695435e-02 8.575618267059e-06 5.153680576324e+03
    4.032000000000e+05 2.384185791016e-07 5.157032775001e-01-1.285225152969e-07
    9.590210305039e-01 2.105312500000e+02 6.773744155005e-01-7.986404094359e-09
    4.943063041274e-10 1.000000000000e+00 2.068000000000e+03 0.000000000000e+00
    2.400000000000e+00 6.300000000000e+01-5.587935447693e-09 1.600000000000e+01
    4.014900000000e+05 4.000000000000e+00
 2 19  8 29 17 59 44.0-2.936222590506e-04-8.299139153678e-12 0.000000000000e+00
    2.000000000000e+01-2.481250000000e+01 5.172001148893e-09-2.563340217249e+00
   -1.151114702225e-06 1.900822983589e-02-7.916241884232e-07 5.153773983002e+03
    4.103840000000e+05 2.272427082062e-07 1.603617344482e+00 1.229345798492e-07
    9.555117460424e-01 3.875937500000e+02-1.719251098601e+00-8.553927733996e-09
    1.117903708034e-10 1.000000000000e+00 2.068000000000e+03 0.000000000000e+00
    2.400000000000e+00 6.300000000000e+01-2.048909664154e-08 2.000000000000e+01
    4.032000000000e+05 4.000000000000e+00
23 19  8 29 17 59 44.0-1.696776598692e-04 2.046363078989e-12 0.000000000000e+00
    1.700000000000e+01 4.990625000000e+01 4.832344143673e-09-2.000712332625e+00
    2.417713403702e-06 1.323008886538e-02 1.044757664204e-05 5.153770326614e+03
    4.103840000000e+05 1.136213541031e-07-2.541298200871e+00-1.192092895508e-07
    9.435911419814e-01 1.665312500000e+02-2.231320531479e+00-7.951045478673e-09
    6.625275969337e-10 1.000000000000e+00 2.068000000000e+03 0.000000000000e+00
    2.400000000000e+00 0.000000000000e+00-2.002343535423e-08 1.700000000000e+01
    4.032000000000e+05 4.000000000000e+00
 1 19  8 29 18  0  0.0-1.118537038565e-04-1.193711796077e-11 0.000000000000e+00
    1.000000000000e+01-3.243750000000e+01 4.656265380714e-09-2.811533826641e+00
   -1.810491085052e-06 9.109740843996e-03 5.532056093216e-07 5.153647306442e+03
    4.104000000000e+05 5.774199962616e-08 1.674326900287e+00-2.589076757431e-07
    9.764243194436e-01 3.774375000000e+02 7.581004016961e-01-8.403564327900e-09
   -4.035882396416e-11 1.000000000000e+00 2.068000000000e+03 0.000000000000e+00
    2.400000000000e+00 0.000000000000e+00 5.587935447693e-09 1.000000000000e+01
    4.032000000000e+05 4.000000000000e+00
 8 19  8 29 18  0  0.0-4.546251147985e-06-1.477928890381e-12 0.000000000000e+00
    3.500000000000e+01 1.280625000000e+02 4.155173079637e-09-4.638166541339e-01
    6.688758730888e-06 4.397940356284e-03 8.219853043556e-06 5.153552236557e+03
    4.104000000000e+05 3.725290298462e-08 6.065598309545e-01-4.284083843231e-08
    9.704328184907e-01 2.233125000000e+02-2.294252042978e-01-8.084265313528e-09
    4.428755904031e-10 1.000000000000e+00 2.068000000000e+03 0.000000000000e+00
    2.400000000000e+00 0.000000000000e+00 5.122274160385e-09 3.500000000000e+01
    4.032000000000e+05 4.000000000000e+00
 7 19  8 29 18  0  0.0-9.534507989883e-05-7.958078640513e-12 0.000000000000e+00
    7.800000000000e+01-1.915625000000e+01 5.076640033863e-09 2.841545250177e+00
   -1.154839992523e-06 1.315586164128e-02 4.105269908905e-06 5.153725032806e+03
    4.104000000000e+05-7.636845111847e-08-1.459438617854e+00-1.545995473862e-07
    9.543631139687e-01 2.961562500000e+02-2.433775462917e+00-8.227485564941e-09
   -2.517962026082e-10 1.000000000000e+00 2.068000000000e+03 0.000000000000e+00
    2.400000000000e+00 0.000000000000e+00-1.117587089539e-08 7.800000000000e+01
    4.032000000000e+05 4.000000000000e+00
 5 19  8 29 18  0  0.0-9.844079613686e-07-3.410605131648e-13 0.000000000000e+00
    8.100000000000e+01-1.412187500000e+02 4.664480008601e-09 1.024589304086e-01
   -7.202848792076e-06 5.880776909180e-03 1.082755625248e-05 5.153762935638e+03
    4.104000000000e+05 7.450580596924e-09 2.688413937426e+00 5.401670932770e-08
    9.508148690729e-01 1.620625000000e+02 7.682764598555e-01-8.245700609385e-09
   -3.507288949806e-10 1.000000000000e+00 2.068000000000e+03 0.000000000000e+00
    2.400000000000e+00 0.000000000000e+00-1.117587089539e-08 8.100000000000e+01
    4.032000000000e+05 4.000000000000e+00
 3 19  8 29 18  0  0.0-5.808193236589e-06-3.524291969370e-12 0.000000000000e+00
    5.600000000000e+01-1.239687500000e+02 4.227676099679e-09 2.395368560258e+00
   -6.556510925293e-06 2.489472739398e-03 1.087598502636e-05 5.153732740402e+03
    4.104000000000e+05-4.284083843231e-08 2.716543409017e+00-1.303851604462e-08
    9.639555029245e-01 1.705625000000e+02 7.115135296916e-01-7.874613723555e-09
   -2.639395655709e-10 1.000000000000e+00 2.068000000000e+03 0.000000000000e+00
    2.400000000000e+00 0.000000000000e+00 1.862645149231e-09 5.600000000000e+01
    4.032000000000e+05 4.000000000000e+00
